ONEWEB-0012             
1 44057U 19010A   25297.96659120 -.00000053  00000+0 -17145-3 0  9994
2 44057  87.8973 275.6522 0001464  85.6854 274.4444 13.16595070320612
ONEWEB-0010             
1 44058U 19010B   25297.99192410  .00000016  00000+0  73421-5 0  9990
2 44058  87.8981 275.6322 0002159  95.2418 264.8960 13.16594554320662
ONEWEB-0008             
1 44059U 19010C   25297.94124367  .00000109  00000+0  25028-3 0  9993
2 44059  87.8984 275.6389 0001932  80.4520 279.6829 13.16596410320770
ONEWEB-0007             
1 44060U 19010D   25297.94162313  .00000086  00000+0  19329-3 0  9999
2 44060  87.8963 306.1763 0001828 101.9479 258.1856 13.15548538320444
ONEWEB-0006             
1 44061U 19010E   25297.94558040  .00000114  00000+0  26861-3 0  9997
2 44061  87.8971 306.1186 0001940  99.1664 260.9685 13.15547628320497
ONEWEB-0011             
1 44062U 19010F   25297.98993617 -.00000055  00000+0 -17945-3 0  9994
2 44062  87.8964 306.1210 0002060  89.7721 270.3645 13.15548833320491
ONEWEB-0013             
1 45131U 20008A   25297.97565130  .00000653  00000+0  18590-2 0  9993
2 45131  87.8468 100.3262 0000575  92.5513 267.5680 13.09438546275284
ONEWEB-0017             
1 45132U 20008B   25297.97133483 -.00000573  00000+0 -16784-2 0  9992
2 45132  87.8767  83.1657 0001807  99.1147 261.0185 13.10371902277148
